FENGYUN 1C DEB          
1 36997U 99025ECD 17345.85965250  .00002046  00000-0  42750-3 0  9992
2 36997  98.6581   4.5288 0140384  55.1909 306.2402 14.55007293508005
